IRIDIUM 57              
1 25273U 98019B   24300.90426478  .00001465  00000+0  50287-3 0  9995
2 25273  86.3960 242.9127 0002365  85.6264 274.5202 14.35514094391525
IRIDIUM 63              
1 25286U 98021B   24300.94485499  .00001204  00000+0  40705-3 0  9999
2 25286  86.4043 179.8859 0001991  78.0542 282.0878 14.36123363390631
IRIDIUM 69              
1 25319U 98026A   24301.11018757  .00002106  00000+0  65711-3 0  9996
2 25319  86.4044 193.7857 0004546  75.7639 284.4065 14.40440557389748
IRIDIUM 71              
1 25320U 98026B   24301.08266728  .00001567  00000+0  48469-3 0  9998
2 25320  86.4041 188.5387 0003851 108.7976 251.3641 14.40702044390271
IRIDIUM 73              
1 25344U 98032C   24301.10816555  .00001986  00000+0  49690-3 0  9995
2 25344  86.4420 145.7748 0002727  79.2845 280.8668 14.51039495397056
IRIDIUM 82              
1 25467U 98051A   24300.86660474  .00040758  00000+0  17251-2 0  9998
2 25467  86.3758 222.9862 0117503  93.5429 267.9260 15.16847498388401
